COSMOS 2361 [-]         
1 25590U 98076A   16274.21684190  .00000067  00000-0  56192-4 0  9992
2 25590  82.9328 308.1150 0030322 245.9754 181.3949 13.72920259890269
COSMOS 2378 [-]         
1 26818U 01023A   16274.26738620  .00000027  00000-0  12751-4 0  9994
2 26818  82.9304 329.9568 0032350 200.2459 159.7423 13.73904812767841
COSMOS 2389 [-]         
1 27436U 02026A   16274.14612556  .00000035  00000-0  20519-4 0  9991
2 27436  82.9472 273.5695 0047822  76.8775 352.0074 13.74904802719732
COSMOS 2398 [-]         
1 27818U 03023A   16273.64053329  .00000051  00000-0  38746-4 0  9993
2 27818  82.9473 228.7845 0032795  85.7817 274.7080 13.72133683667205
COSMOS 2407 [+]         
1 28380U 04028A   16273.16886931  .00000031  00000-0  15513-4 0  9999
2 28380  82.9635 181.5344 0040557  92.6071 267.9726 13.76030435612097
COSMOS 2414 [+]         
1 28521U 05002A   16274.47237359  .00000053  00000-0  31117-4 0  9990
2 28521  82.9512 205.1257 0040749   1.4436 358.6832 13.87575027592265
COSMOS 2429 [-]         
1 32052U 07038A   16273.83497584  .00000060  00000-0  46540-4 0  9996
2 32052  82.9782 299.5605 0039680  60.7079 299.8033 13.74877570454276
COSMOS 2454 [-]         
1 35635U 09039A   16274.10688148  .00000041  00000-0  20442-4 0  9990
2 35635  82.9586 195.6435 0018960 330.1121  29.8956 13.89601289364931
COSMOS 2463 [+]         
1 36519U 10017A   16274.21057084 -.00000005  00000-0 -21583-4 0  9990
2 36519  82.9631 335.0806 0034955 249.6042 110.1353 13.71403156321835
